[{"OBJECT_NAME":"SDA_1679","OBJECT_ID":"2025-230R","EPOCH":"2026-03-09T17:52:28.680096","MEAN_MOTION":13.85334515,"ECCENTRICITY":0.0004897,"INCLINATION":81.3013,"RA_OF_ASC_NODE":303.8521,"ARG_OF_PERICENTER":108.9978,"MEAN_ANOMALY":251.171,"EPHEMERIS_TYPE":0,"CLASSIFICATION_TYPE":"U","NORAD_CAT_ID":65989,"ELEMENT_SET_NO":999,"REV_AT_EPOCH":2005,"BSTAR":0.00022111439,"MEAN_MOTION_DOT":2.63e-6,"MEAN_MOTION_DDOT":0},{"OBJECT_NAME":"FENGYUN 1C DEB","OBJECT_ID":"1999-025AHL","EPOCH":"2026-03-09T02:32:42.993024","MEAN_MOTION":14.06621547,"ECCENTRICITY":0.01000896,"INCLINATION":99.2295,"RA_OF_ASC_NODE":125.9728,"ARG_OF_PERICENTER":274.8975,"MEAN_ANOMALY":113.8878,"EPHEMERIS_TYPE":0,"CLASSIFICATION_TYPE":"U","NORAD_CAT_ID":30498,"ELEMENT_SET_NO":999,"REV_AT_EPOCH":96983,"BSTAR":0.0016488197,"MEAN_MOTION_DOT":2.814e-5,"MEAN_MOTION_DDOT":0}]
